NORAD_CAT_ID,OBJECT_NAME,OBJECT_TYPE,EPOCH,MEAN_MOTION,ECCENTRICITY,INCLINATION,RA_OF_ASC_NODE,ARG_OF_PERICENTER,MEAN_ANOMALY,BSTAR,MEAN_MOTION_DOT,MEAN_MOTION_DDOT,TLE_LINE0,TLE_LINE1,TLE_LINE2,SEMIMAJOR_AXIS,PERIOD,APOGEE,PERIGEE,DECAYED
55937.0,STARLINK-5913,PAYLOAD,2023-11-24 19:38:40,14.98328794,0.0002652,69.9992,232.0263,259.0049,101.0812,-5.631e-05,-7.65e-06,0.0,0 STARLINK-5913,1 55937U 23037Z   23328.81852274 -.00000765  00000-0 -56310-4 0  9998,2 55937  69.9992 232.0263 0002652 259.0049 101.0812 14.98328794 39119,6950.197,96.107,573.905,570.218,0.0
55937.0,STARLINK-5913,PAYLOAD,2023-11-24 21:14:48,14.9832889,0.000275,69.9992,231.8585,262.9683,97.1163,-4.9699e-05,-6.86e-06,0.0,0 STARLINK-5913,1 55937U 23037Z   23328.88528265 -.00000686  00000-0 -49699-4 0  9999,2 55937  69.9992 231.8585 0002750 262.9683  97.1163 14.98328890 38782,6950.196,96.107,573.973,570.15,0.0
55937.0,STARLINK-5913,PAYLOAD,2023-11-25 03:39:20,14.98336018,0.0002534,69.9994,231.1847,259.0404,101.047,4.1324e-05,4e-06,0.0,0 STARLINK-5913,1 55937U 23037Z   23329.15231550  .00000400  00000-0  41324-4 0  9997,2 55937  69.9994 231.1847 0002534 259.0404 101.0470 14.98336018 39166,6950.174,96.107,573.8,570.278,0.0
55937.0,STARLINK-5913,PAYLOAD,2023-11-25 21:16:48,14.98315619,0.0002486,69.9996,229.3328,263.3558,96.7318,0.00044625,5.234e-05,0.0,0 STARLINK-5913,1 55937U 23037Z   23329.88667504  .00005234  00000-0  44625-3 0  9995,2 55937  69.9996 229.3328 0002486 263.3558  96.7318 14.98315619 38934,6950.237,96.108,573.83,570.375,0.0
55937.0,STARLINK-5913,PAYLOAD,2023-11-26 02:05:12,14.98338918,0.0002447,70.0007,228.8317,236.1022,123.9905,0.00027857,3.233e-05,0.0,0 STARLINK-5913,1 55937U 23037Z   23330.08694458  .00003233  00000-0  27857-3 0  9992,2 55937  70.0007 228.8317 0002447 236.1022 123.9905 14.98338918 39307,6950.165,96.106,573.731,570.33,0.0
55937.0,STARLINK-5913,PAYLOAD,2023-11-26 03:41:19,14.98340349,0.0002414,70.0003,228.6623,244.2527,115.8383,0.00032242,3.757e-05,0.0,0 STARLINK-5913,1 55937U 23037Z   23330.15370239  .00003757  00000-0  32242-3 0  9993,2 55937  70.0003 228.6623 0002414 244.2527 115.8383 14.98340349 38978,6950.161,96.106,573.704,570.348,0.0
55937.0,STARLINK-5913,PAYLOAD,2023-11-26 19:42:42,14.98321785,0.0002521,69.9996,226.9786,255.9239,104.164,-0.00013509,-1.704e-05,0.0,0 STARLINK-5913,1 55937U 23037Z   23330.82132768 -.00001704  00000-0 -13509-3 0  9997,2 55937  69.9996 226.9786 0002521 255.9239 104.1640 14.98321785 39415,6950.218,96.108,573.835,570.331,0.0
55937.0,STARLINK-5913,PAYLOAD,2023-11-26 21:18:50,14.98321477,0.0002576,69.9996,226.81,258.6493,101.4377,-0.00014524,-1.825e-05,0.0,0 STARLINK-5913,1 55937U 23037Z   23330.88808861 -.00001825  00000-0 -14524-3 0  9999,2 55937  69.9996 226.8100 0002576 258.6493 101.4377 14.98321477 39084,6950.219,96.108,573.875,570.294,0.0
55937.0,STARLINK-5913,PAYLOAD,2023-11-27 03:43:23,14.98319475,0.0002576,69.9996,226.1368,254.1644,105.9231,-0.00014096,-1.774e-05,0.0,0 STARLINK-5913,1 55937U 23037Z   23331.15513055 -.00001774  00000-0 -14096-3 0  9995,2 55937  69.9996 226.1368 0002576 254.1644 105.9231 14.98319475 39120,6950.225,96.108,573.881,570.3,0.0
55937.0,STARLINK-5913,PAYLOAD,2023-11-27 18:08:35,14.98336225,0.0002394,70.0006,224.6241,261.7542,98.3346,-0.00012765,-1.616e-05,0.0,0 STARLINK-5913,1 55937U 23037Z   23331.75596171 -.00001616  00000-0 -12765-3 0  9997,2 55937  70.0006 224.6241 0002394 261.7542  98.3346 14.98336225 39558,6950.174,96.107,573.703,570.375,0.0
55937.0,STARLINK-5913,PAYLOAD,2023-11-27 21:20:50,14.98336954,0.0002166,70.001,224.2869,253.865,106.2271,-7.6531e-05,-1.006e-05,0.0,0 STARLINK-5913,1 55937U 23037Z   23331.88947893 -.00001006  00000-0 -76531-4 0  9997,2 55937  70.0010 224.2869 0002166 253.8650 106.2271 14.98336954 39234,6950.171,96.107,573.542,570.531,0.0
55937.0,STARLINK-5913,PAYLOAD,2023-11-28 02:09:14,14.98339638,0.0002079,70.001,223.7807,246.6237,113.4703,-4.7256e-05,-6.57e-06,0.0,0 STARLINK-5913,1 55937U 23037Z   23332.08975474 -.00000657  00000-0 -47256-4 0  9999,2 55937  70.0010 223.7807 0002079 246.6237 113.4703 14.98339638 39607,6950.163,96.106,573.473,570.583,0.0
55937.0,STARLINK-5913,PAYLOAD,2023-11-28 19:46:44,14.98299954,0.0002281,70.0014,221.9299,256.1908,103.8997,0.00052947,6.225e-05,0.0,0 STARLINK-5913,1 55937U 23037Z   23332.82412115  .00006225  00000-0  52947-3 0  9996,2 55937  70.0014 221.9299 0002281 256.1908 103.8997 14.98299954 39718,6950.286,96.109,573.736,570.565,0.0
55937.0,STARLINK-5913,PAYLOAD,2023-11-29 02:11:16,14.98323242,0.0002322,70.0005,221.2535,271.7864,88.3029,0.00020733,2.381e-05,0.0,0 STARLINK-5913,1 55937U 23037Z   23333.09115930  .00002381  00000-0  20733-3 0  9998,2 55937  70.0005 221.2535 0002322 271.7864  88.3029 14.98323242 39759,6950.214,96.107,573.693,570.465,0.0
55937.0,STARLINK-5913,PAYLOAD,2023-11-30 02:13:16,14.98335005,0.0002716,69.9999,218.7299,268.2112,91.8736,-9.8427e-06,-2.1e-06,0.0,0 STARLINK-5913,1 55937U 23037Z   23334.09255776 -.00000210  00000-0 -98427-5 0  9990,2 55937  69.9999 218.7299 0002716 268.2112  91.8736 14.98335005 39901,6950.177,96.107,573.93,570.155,0.0
55937.0,STARLINK-5913,PAYLOAD,2023-11-30 19:50:46,14.98325646,0.0002382,70.0006,216.8779,263.768,96.3208,-8.0699e-06,-1.89e-06,0.0,0 STARLINK-5913,1 55937U 23037Z   23334.82692351 -.00000189  00000-0 -80699-5 0  9992,2 55937  70.0006 216.8779 0002382 263.7680  96.3208 14.98325646 40012,6950.206,96.107,573.727,570.416,0.0
55937.0,STARLINK-5913,PAYLOAD,2023-12-01 19:52:46,14.98338776,0.0002531,69.9997,214.3526,261.3089,98.7783,3.1114e-05,2.78e-06,0.0,0 STARLINK-5913,1 55937U 23037Z   23335.82831332  .00000278  00000-0  31114-4 0  9991,2 55937  69.9997 214.3526 0002531 261.3089  98.7783 14.98338776 40162,6950.166,96.106,573.79,570.272,0.0
55937.0,STARLINK-5913,PAYLOAD,2023-12-01 21:28:53,14.98345324,0.0002445,69.9997,214.1858,241.8916,118.1996,0.00010159,1.12e-05,0.0,0 STARLINK-5913,1 55937U 23037Z   23335.89506616  .00001120  00000-0  10159-3 0  9994,2 55937  69.9997 214.1858 0002445 241.8916 118.1996 14.98345324 39836,6950.146,96.106,573.71,570.311,0.0
55937.0,STARLINK-5913,PAYLOAD,2023-12-02 00:41:09,14.98344601,0.0002458,69.9998,213.8505,238.3266,121.7654,0.00015045,1.703e-05,0.0,0 STARLINK-5913,1 55937U 23037Z   23336.02858410  .00001703  00000-0  15045-3 0  9998,2 55937  69.9998 213.8505 0002458 238.3266 121.7654 14.98344601 40194,6950.148,96.106,573.721,570.304,0.0
55937.0,STARLINK-5913,PAYLOAD,2023-12-02 02:17:17,14.98349956,0.0002313,69.9999,213.6808,272.1141,87.9753,0.00020848,2.397e-05,0.0,0 STARLINK-5913,1 55937U 23037Z   23336.09534069  .00002397  00000-0  20848-3 0  9993,2 55937  69.9999 213.6808 0002313 272.1141  87.9753 14.98349956 39860,6950.131,96.106,573.604,570.389,0.0
55937.0,STARLINK-5913,PAYLOAD,2023-12-02 19:54:47,14.98326716,0.0002365,69.9994,211.8283,245.9289,114.1623,-4.053e-05,-5.76e-06,0.0,0 STARLINK-5913,1 55937U 23037Z   23336.82971766 -.00000576  00000-0 -40530-4 0  9993,2 55937  69.9994 211.8283 0002365 245.9289 114.1623 14.98326716 40310,6950.203,96.107,573.712,570.424,0.0
55937.0,STARLINK-5913,PAYLOAD,2023-12-02 21:30:55,14.98324621,0.000262,69.999,211.6596,263.141,96.9451,-6.887e-05,-9.14e-06,0.0,0 STARLINK-5913,1 55937U 23037Z   23336.89648031 -.00000914  00000-0 -68870-4 0  9999,2 55937  69.9990 211.6596 0002620 263.1410  96.9451 14.98324621 39983,6950.21,96.107,573.895,570.254,0.0
55937.0,STARLINK-5913,PAYLOAD,2023-12-03 02:19:20,14.98324912,0.0002414,69.9996,211.156,257.0133,103.0757,-5.7538e-05,-7.79e-06,0.0,0 STARLINK-5913,1 55937U 23037Z   23337.09676100 -.00000779  00000-0 -57538-4 0  9998,2 55937  69.9996 211.1560 0002414 257.0133 103.0757 14.98324912 40018,6950.209,96.107,573.751,570.396,0.0
55937.0,STARLINK-5913,PAYLOAD,2023-12-03 19:56:48,14.98330755,0.0002392,69.9999,209.3058,244.5971,115.4941,-0.00016119,-2.016e-05,0.0,0 STARLINK-5913,1 55937U 23037Z   23337.83112142 -.00002016  00000-0 -16119-3 0  9996,2 55937  69.9999 209.3058 0002392 244.5971 115.4941 14.98330755 40461,6950.191,96.107,573.718,570.393,0.0
55937.0,STARLINK-5913,PAYLOAD,2023-12-04 02:21:21,14.98327141,0.000219,69.9993,208.6315,260.7995,99.2916,-0.0001832,-2.278e-05,0.0,0 STARLINK-5913,1 55937U 23037Z   23338.09816568 -.00002278  00000-0 -18320-3 0  9994,2 55937  69.9993 208.6315 0002190 260.7995  99.2916 14.98327141 40168,6950.202,96.107,573.589,570.545,0.0
55937.0,STARLINK-5913,PAYLOAD,2023-12-05 00:47:13,14.98324878,0.0002687,69.9999,206.2749,262.6981,97.3873,9.4815e-05,1.038e-05,0.0,0 STARLINK-5913,1 55937U 23037Z   23339.03279816  .00001038  00000-0  94815-4 0  9993,2 55937  69.9999 206.2749 0002687 262.6981  97.3873 14.98324878 40644,6950.209,96.107,573.941,570.206,0.0
55937.0,STARLINK-5913,PAYLOAD,2023-12-06 00:49:14,14.98329729,0.0002957,69.9989,203.7503,277.1753,82.9069,0.00012288,1.373e-05,0.0,0 STARLINK-5913,1 55937U 23037Z   23340.03419571  .00001373  00000-0  12288-3 0  9994,2 55937  69.9989 203.7503 0002957 277.1753  82.9069 14.98329729 40794,6950.194,96.107,574.114,570.004,0.0
55937.0,STARLINK-5913,PAYLOAD,2023-12-07 00:51:15,14.98331385,0.0002599,69.9991,201.2256,284.4407,75.6463,-4.6121e-05,-6.43e-06,0.0,0 STARLINK-5913,1 55937U 23037Z   23341.03559971 -.00000643  00000-0 -46121-4 0  9999,2 55937  69.9991 201.2256 0002599 284.4407  75.6463 14.98331385 40949,6950.189,96.107,573.86,570.247,0.0
55937.0,STARLINK-5913,PAYLOAD,2023-12-08 00:53:18,14.98316172,0.0002304,69.9984,198.7082,297.0246,63.0678,-0.00015097,-1.893e-05,0.0,0 STARLINK-5913,1 55937U 23037Z   23342.03701849 -.00001893  00000-0 -15097-3 0  9998,2 55937  69.9984 198.7082 0002304 297.0246  63.0678 14.98316172 41096,6950.236,96.108,573.702,570.499,0.0
55937.0,STARLINK-5913,PAYLOAD,2023-12-10 18:34:48,14.98331331,0.0002892,69.999,191.8002,276.3507,83.7323,5.6297e-05,5.79e-06,0.0,0 STARLINK-5913,1 55937U 23037Z   23344.77416772  .00000579  00000-0  56297-4 0  9995,2 55937  69.9990 191.8002 0002892 276.3507  83.7323 14.98331331 41507,6950.189,96.107,574.064,570.044,0.0
